[
    {
        "Altitude(m)": 717707.2343313625,
        "Argument of Periapsis(deg)": 0.0011390121186627068,
        "Eccentricity": 0.0,
        "Inclination(deg)": 45.0,
        "Latitude(deg)": -44.72680521256554,
        "Longitude(deg)": 45.080089644694496,
        "Mean Anomaly(deg)": -97.02847833525183,
        "RAAN(deg)": 244.99892480585416,
        "Satellite Name": "Constellation 1 1094",
        "Satellite Number": 1094,
        "Semi-Major Axis(m)": 7083131.272910544,
        "Time(s)": 19
    },
    {
        "Altitude(m)": 717710.2430259277,
        "Argument of Periapsis(deg)": 0.0011989601249081123,
        "Eccentricity": 0.0,
        "Inclination(deg)": 45.0,
        "Latitude(deg)": -44.73412519341384,
        "Longitude(deg)": 45.16037087362532,
        "Mean Anomaly(deg)": -96.9677771950021,
        "RAAN(deg)": 244.9988682166886,
        "Satellite Name": "Constellation 1 1094",
        "Satellite Number": 1094,
        "Semi-Major Axis(m)": 7083131.272910544,
        "Time(s)": 20
    },
    {
        "Altitude(m)": 717713.2259510027,
        "Argument of Periapsis(deg)": 0.001258908131153518,
        "Eccentricity": 0.0,
        "Inclination(deg)": 45.0,
        "Latitude(deg)": -44.74138281505765,
        "Longitude(deg)": 45.24067325932226,
        "Mean Anomaly(deg)": -96.90707605475212,
        "RAAN(deg)": 244.99881162752305,
        "Satellite Name": "Constellation 1 1094",
        "Satellite Number": 1094,
        "Semi-Major Axis(m)": 7083131.272910544,
        "Time(s)": 21
    },
    {
        "Altitude(m)": 717716.1830955595,
        "Argument of Periapsis(deg)": 0.0013188561373989236,
        "Eccentricity": 0.0,
        "Inclination(deg)": 45.0,
        "Latitude(deg)": -44.74857804648566,
        "Longitude(deg)": 45.32099646322288,
        "Mean Anomaly(deg)": -96.84637491450219,
        "RAAN(deg)": 244.9987550383575,
        "Satellite Name": "Constellation 1 1094",
        "Satellite Number": 1094,
        "Semi-Major Axis(m)": 7083131.272910544,
        "Time(s)": 22
    },
    {
        "Altitude(m)": 717719.1144486612,
        "Argument of Periapsis(deg)": 0.0013788041436443293,
        "Eccentricity": 0.0,
        "Inclination(deg)": 45.0,
        "Latitude(deg)": -44.75571085693328,
        "Longitude(deg)": 45.40134065069949,
        "Mean Anomaly(deg)": -96.78567377425222,
        "RAAN(deg)": 244.99869844919195,
        "Satellite Name": "Constellation 1 1094",
        "Satellite Number": 1094,
        "Semi-Major Axis(m)": 7083131.272910544,
        "Time(s)": 23
    },
    {
        "Altitude(m)": 717722.019999475,
        "Argument of Periapsis(deg)": 0.001438752149889735,
        "Eccentricity": 0.0,
        "Inclination(deg)": 45.0,
        "Latitude(deg)": -44.76278121588448,
        "Longitude(deg)": 45.48170548247983,
        "Mean Anomaly(deg)": -96.72497263400244,
        "RAAN(deg)": 244.99864186002634,
        "Satellite Name": "Constellation 1 1094",
        "Satellite Number": 1094,
        "Semi-Major Axis(m)": 7083131.272910544,
        "Time(s)": 24
    },
    {
        "Altitude(m)": 717724.8997372508,
        "Argument of Periapsis(deg)": 0.0014987001561351404,
        "Eccentricity": 0.0,
        "Inclination(deg)": 45.0,
        "Latitude(deg)": -44.76978909307174,
        "Longitude(deg)": 45.562090787038585,
        "Mean Anomaly(deg)": -96.66427149375247,
        "RAAN(deg)": 244.99858527086076,
        "Satellite Name": "Constellation 1 1094",
        "Satellite Number": 1094,
        "Semi-Major Axis(m)": 7083131.272910544,
        "Time(s)": 25
    },
    {
        "Altitude(m)": 717727.753651342,
        "Argument of Periapsis(deg)": 0.001558648162380546,
        "Eccentricity": 0.0,
        "Inclination(deg)": 45.0,
        "Latitude(deg)": -44.77673445847665,
        "Longitude(deg)": 45.64249639250086,
        "Mean Anomaly(deg)": -96.60357035350263,
        "RAAN(deg)": 244.9985286816952,
        "Satellite Name": "Constellation 1 1094",
        "Satellite Number": 1094,
        "Semi-Major Axis(m)": 7083131.272910544,
        "Time(s)": 26
    },
    {
        "Altitude(m)": 717730.5817311977,
        "Argument of Periapsis(deg)": 0.0016185961686259519,
        "Eccentricity": 0.0,
        "Inclination(deg)": 45.0,
        "Latitude(deg)": -44.783617282330574,
        "Longitude(deg)": 45.72292212664667,
        "Mean Anomaly(deg)": -96.54286921325267,
        "RAAN(deg)": 244.99847209252965,
        "Satellite Name": "Constellation 1 1094",
        "Satellite Number": 1094,
        "Semi-Major Axis(m)": 7083131.272910544,
        "Time(s)": 27
    },
    {
        "Altitude(m)": 717733.3839663562,
        "Argument of Periapsis(deg)": 0.0016785441748713573,
        "Eccentricity": 0.0,
        "Inclination(deg)": 45.0,
        "Latitude(deg)": -44.790437535115316,
        "Longitude(deg)": 45.80336781691237,
        "Mean Anomaly(deg)": -96.48216807300281,
        "RAAN(deg)": 244.9984155033641,
        "Satellite Name": "Constellation 1 1094",
        "Satellite Number": 1094,
        "Semi-Major Axis(m)": 7083131.272910544,
        "Time(s)": 28
    },
    {
        "Altitude(m)": 717736.1603464545,
        "Argument of Periapsis(deg)": 0.001738492181116763,
        "Eccentricity": 0.0,
        "Inclination(deg)": 45.0,
        "Latitude(deg)": -44.797195187563645,
        "Longitude(deg)": 45.883833290394286,
        "Mean Anomaly(deg)": -96.42146693275288,
        "RAAN(deg)": 244.99835891419852,
        "Satellite Name": "Constellation 1 1094",
        "Satellite Number": 1094,
        "Semi-Major Axis(m)": 7083131.272910544,
        "Time(s)": 29
    },
    {
        "Altitude(m)": 717738.910861228,
        "Argument of Periapsis(deg)": 0.0017984401873621684,
        "Eccentricity": 0.0,
        "Inclination(deg)": 45.0,
        "Latitude(deg)": -44.80389021066011,
        "Longitude(deg)": 45.964318205753344,
        "Mean Anomaly(deg)": -96.36076579250307,
        "RAAN(deg)": 244.9983023250329,
        "Satellite Name": "Constellation 1 1094",
        "Satellite Number": 1094,
        "Semi-Major Axis(m)": 7083131.272910544,
        "Time(s)": 30
    },
    {
        "Altitude(m)": 717741.6355005024,
        "Argument of Periapsis(deg)": 0.0018583881936075745,
        "Eccentricity": 0.0,
        "Inclination(deg)": 45.0,
        "Latitude(deg)": -44.810522575640775,
        "Longitude(deg)": 46.04482272560663,
        "Mean Anomaly(deg)": -96.30006465225314,
        "RAAN(deg)": 244.99824573586736,
        "Satellite Name": "Constellation 1 1094",
        "Satellite Number": 1094,
        "Semi-Major Axis(m)": 7083131.272910544,
        "Time(s)": 31
    },
    {
        "Altitude(m)": 717744.334254201,
        "Argument of Periapsis(deg)": 0.0019183361998529795,
        "Eccentricity": 0.0,
        "Inclination(deg)": 45.0,
        "Latitude(deg)": -44.81709225399503,
        "Longitude(deg)": 46.12534650794737,
        "Mean Anomaly(deg)": -96.23936351200317,
        "RAAN(deg)": 244.9981891467018,
        "Satellite Name": "Constellation 1 1094",
        "Satellite Number": 1094,
        "Semi-Major Axis(m)": 7083131.272910544,
        "Time(s)": 32
    },
    {
        "Altitude(m)": 717747.0071123411,
        "Argument of Periapsis(deg)": 0.0019782842060983856,
        "Eccentricity": 0.0,
        "Inclination(deg)": 45.0,
        "Latitude(deg)": -44.82359921746548,
        "Longitude(deg)": 46.20588937853604,
        "Mean Anomaly(deg)": -96.17866237175333,
        "RAAN(deg)": 244.99813255753625,
        "Satellite Name": "Constellation 1 1094",
        "Satellite Number": 1094,
        "Semi-Major Axis(m)": 7083131.272910544,
        "Time(s)": 33
    },
    {
        "Altitude(m)": 717749.6540650366,
        "Argument of Periapsis(deg)": 0.0020382322123437906,
        "Eccentricity": 0.0,
        "Inclination(deg)": 45.0,
        "Latitude(deg)": -44.83004343804852,
        "Longitude(deg)": 46.28645116280603,
        "Mean Anomaly(deg)": -96.11796123150349,
        "RAAN(deg)": 244.99807596837067,
        "Satellite Name": "Constellation 1 1094",
        "Satellite Number": 1094,
        "Semi-Major Axis(m)": 7083131.272910544,
        "Time(s)": 34
    },
    {
        "Altitude(m)": 717752.2751024981,
        "Argument of Periapsis(deg)": 0.002098180218589197,
        "Eccentricity": 0.0,
        "Inclination(deg)": 45.0,
        "Latitude(deg)": -44.83642488799502,
        "Longitude(deg)": 46.367031685866394,
        "Mean Anomaly(deg)": -96.05726009125348,
        "RAAN(deg)": 244.9980193792051,
        "Satellite Name": "Constellation 1 1094",
        "Satellite Number": 1094,
        "Semi-Major Axis(m)": 7083131.272910544,
        "Time(s)": 35
    },
    {
        "Altitude(m)": 717754.8702150284,
        "Argument of Periapsis(deg)": 0.002158128224834602,
        "Eccentricity": 0.0,
        "Inclination(deg)": 45.0,
        "Latitude(deg)": -44.842743539810854,
        "Longitude(deg)": 46.447630772503764,
        "Mean Anomaly(deg)": -95.99655895100362,
        "RAAN(deg)": 244.99796279003954,
        "Satellite Name": "Constellation 1 1094",
        "Satellite Number": 1094,
        "Semi-Major Axis(m)": 7083131.272910544,
        "Time(s)": 36
    },
    {
        "Altitude(m)": 717757.439393034,
        "Argument of Periapsis(deg)": 0.002218076231080008,
        "Eccentricity": 0.0,
        "Inclination(deg)": 45.0,
        "Latitude(deg)": -44.84899936625768,
        "Longitude(deg)": 46.528248079089934,
        "Mean Anomaly(deg)": -95.93585781075376,
        "RAAN(deg)": 244.99790620087396,
        "Satellite Name": "Constellation 1 1094",
        "Satellite Number": 1094,
        "Semi-Major Axis(m)": 7083131.272910544,
        "Time(s)": 37
    }
]